[{"OBJECT_NAME":"ZACUBE-1 (TSHEPISOSAT)","OBJECT_ID":"2013-066B","EPOCH":"2026-03-06T09:29:19.193856","MEAN_MOTION":15.00283693,"ECCENTRICITY":0.00420357,"INCLINATION":97.8184,"RA_OF_ASC_NODE":27.2032,"ARG_OF_PERICENTER":231.0505,"MEAN_ANOMALY":128.6969,"EPHEMERIS_TYPE":0,"CLASSIFICATION_TYPE":"U","NORAD_CAT_ID":39417,"ELEMENT_SET_NO":999,"REV_AT_EPOCH":66531,"BSTAR":0.00045309734,"MEAN_MOTION_DOT":5.72e-5,"MEAN_MOTION_DDOT":0},{"OBJECT_NAME":"WNISAT-1","OBJECT_ID":"2013-066H","EPOCH":"2026-03-06T11:22:12.740448","MEAN_MOTION":14.57857752,"ECCENTRICITY":0.01633414,"INCLINATION":97.7035,"RA_OF_ASC_NODE":222.0171,"ARG_OF_PERICENTER":195.0076,"MEAN_ANOMALY":164.6247,"EPHEMERIS_TYPE":0,"CLASSIFICATION_TYPE":"U","NORAD_CAT_ID":39423,"ELEMENT_SET_NO":999,"REV_AT_EPOCH":65176,"BSTAR":0.00045822593,"MEAN_MOTION_DOT":2.473e-5,"MEAN_MOTION_DDOT":0},{"OBJECT_NAME":"TRITON-1","OBJECT_ID":"2013-066M","EPOCH":"2026-03-06T20:00:42.174144","MEAN_MOTION":14.8117752,"ECCENTRICITY":0.0089982,"INCLINATION":97.8297,"RA_OF_ASC_NODE":337.9903,"ARG_OF_PERICENTER":207.0865,"MEAN_ANOMALY":152.5638,"EPHEMERIS_TYPE":0,"CLASSIFICATION_TYPE":"U","NORAD_CAT_ID":39427,"ELEMENT_SET_NO":999,"REV_AT_EPOCH":65893,"BSTAR":0.00042405,"MEAN_MOTION_DOT":3.48e-5,"MEAN_MOTION_DDOT":0},{"OBJECT_NAME":"GOMX-1","OBJECT_ID":"2013-066Q","EPOCH":"2026-03-06T19:52:19.484256","MEAN_MOTION":14.69084514,"ECCENTRICITY":0.0130434,"INCLINATION":97.6567,"RA_OF_ASC_NODE":272.7117,"ARG_OF_PERICENTER":46.6201,"MEAN_ANOMALY":314.5781,"EPHEMERIS_TYPE":0,"CLASSIFICATION_TYPE":"U","NORAD_CAT_ID":39430,"ELEMENT_SET_NO":999,"REV_AT_EPOCH":65488,"BSTAR":0.00032774,"MEAN_MOTION_DOT":2.142e-5,"MEAN_MOTION_DDOT":0},{"OBJECT_NAME":"CUBEBUG-2 (LO-74)","OBJECT_ID":"2013-066AA","EPOCH":"2026-03-06T13:08:28.841856","MEAN_MOTION":14.92909829,"ECCENTRICITY":0.00590879,"INCLINATION":97.882,"RA_OF_ASC_NODE":14.2158,"ARG_OF_PERICENTER":9.5494,"MEAN_ANOMALY":350.6833,"EPHEMERIS_TYPE":0,"CLASSIFICATION_TYPE":"U","NORAD_CAT_ID":39440,"ELEMENT_SET_NO":999,"REV_AT_EPOCH":66167,"BSTAR":0.00071771382,"MEAN_MOTION_DOT":7.643e-5,"MEAN_MOTION_DDOT":0},{"OBJECT_NAME":"NEE-02 KRYSAOR","OBJECT_ID":"2013-066AB","EPOCH":"2026-03-06T08:21:29.422944","MEAN_MOTION":14.86134829,"ECCENTRICITY":0.00679768,"INCLINATION":97.882,"RA_OF_ASC_NODE":5.3792,"ARG_OF_PERICENTER":47.8016,"MEAN_ANOMALY":312.8942,"EPHEMERIS_TYPE":0,"CLASSIFICATION_TYPE":"U","NORAD_CAT_ID":39441,"ELEMENT_SET_NO":999,"REV_AT_EPOCH":66092,"BSTAR":0.0004315782,"MEAN_MOTION_DOT":3.888e-5,"MEAN_MOTION_DDOT":0},{"OBJECT_NAME":"FUNCUBE-1 (AO-73)","OBJECT_ID":"2013-066AE","EPOCH":"2026-03-06T20:29:39.374016","MEAN_MOTION":15.07846155,"ECCENTRICITY":0.0036957,"INCLINATION":97.8191,"RA_OF_ASC_NODE":35.3439,"ARG_OF_PERICENTER":188.9589,"MEAN_ANOMALY":171.0983,"EPHEMERIS_TYPE":0,"CLASSIFICATION_TYPE":"U","NORAD_CAT_ID":39444,"ELEMENT_SET_NO":999,"REV_AT_EPOCH":66423,"BSTAR":0.00077451,"MEAN_MOTION_DOT":0.00011997,"MEAN_MOTION_DDOT":0},{"OBJECT_NAME":"UWE-3","OBJECT_ID":"2013-066AG","EPOCH":"2026-03-06T07:39:11.907648","MEAN_MOTION":14.96131276,"ECCENTRICITY":0.00487115,"INCLINATION":97.8596,"RA_OF_ASC_NODE":20.8378,"ARG_OF_PERICENTER":303.9606,"MEAN_ANOMALY":55.699,"EPHEMERIS_TYPE":0,"CLASSIFICATION_TYPE":"U","NORAD_CAT_ID":39446,"ELEMENT_SET_NO":999,"REV_AT_EPOCH":66219,"BSTAR":0.0005521353,"MEAN_MOTION_DOT":6.303e-5,"MEAN_MOTION_DDOT":0},{"OBJECT_NAME":"BRITE-CA1 (TORONTO)","OBJECT_ID":"2014-033L","EPOCH":"2026-03-06T18:35:53.947680","MEAN_MOTION":14.7245363,"ECCENTRICITY":0.0077781,"INCLINATION":97.9562,"RA_OF_ASC_NODE":196.7031,"ARG_OF_PERICENTER":244.3708,"MEAN_ANOMALY":114.9449,"EPHEMERIS_TYPE":0,"CLASSIFICATION_TYPE":"U","NORAD_CAT_ID":40020,"ELEMENT_SET_NO":999,"REV_AT_EPOCH":62714,"BSTAR":0.00029466,"MEAN_MOTION_DOT":1.906e-5,"MEAN_MOTION_DDOT":0},{"OBJECT_NAME":"DUCHIFAT-1","OBJECT_ID":"2014-033M","EPOCH":"2026-03-06T02:00:20.118816","MEAN_MOTION":15.49284424,"ECCENTRICITY":0.000646,"INCLINATION":98.0634,"RA_OF_ASC_NODE":111.0868,"ARG_OF_PERICENTER":95.0854,"MEAN_ANOMALY":265.1132,"EPHEMERIS_TYPE":0,"CLASSIFICATION_TYPE":"U","NORAD_CAT_ID":40021,"ELEMENT_SET_NO":999,"REV_AT_EPOCH":63971,"BSTAR":0.00101087,"MEAN_MOTION_DOT":0.00055499,"MEAN_MOTION_DDOT":0},{"OBJECT_NAME":"NANOSATC-BR1","OBJECT_ID":"2014-033Q","EPOCH":"2026-03-06T15:25:54.780960","MEAN_MOTION":15.27977682,"ECCENTRICITY":0.00043767,"INCLINATION":98.0845,"RA_OF_ASC_NODE":89.1586,"ARG_OF_PERICENTER":156.9642,"MEAN_ANOMALY":203.1792,"EPHEMERIS_TYPE":0,"CLASSIFICATION_TYPE":"U","NORAD_CAT_ID":40024,"ELEMENT_SET_NO":999,"REV_AT_EPOCH":63830,"BSTAR":0.00083949075,"MEAN_MOTION_DOT":0.00022886,"MEAN_MOTION_DDOT":0},{"OBJECT_NAME":"QB50P1","OBJECT_ID":"2014-033R","EPOCH":"2026-03-06T11:26:36.828096","MEAN_MOTION":15.16433497,"ECCENTRICITY":0.00079299,"INCLINATION":98.1009,"RA_OF_ASC_NODE":69.5425,"ARG_OF_PERICENTER":206.5522,"MEAN_ANOMALY":153.5304,"EPHEMERIS_TYPE":0,"CLASSIFICATION_TYPE":"U","NORAD_CAT_ID":40025,"ELEMENT_SET_NO":999,"REV_AT_EPOCH":63745,"BSTAR":0.00060497038,"MEAN_MOTION_DOT":0.00011707,"MEAN_MOTION_DDOT":0},{"OBJECT_NAME":"QB50P2","OBJECT_ID":"2014-033Y","EPOCH":"2026-03-06T19:41:51.526464","MEAN_MOTION":15.13603113,"ECCENTRICITY":0.0008412,"INCLINATION":98.0735,"RA_OF_ASC_NODE":56.4632,"ARG_OF_PERICENTER":150.5024,"MEAN_ANOMALY":209.6682,"EPHEMERIS_TYPE":0,"CLASSIFICATION_TYPE":"U","NORAD_CAT_ID":40032,"ELEMENT_SET_NO":999,"REV_AT_EPOCH":63717,"BSTAR":0.00064933,"MEAN_MOTION_DOT":0.00011604,"MEAN_MOTION_DDOT":0},{"OBJECT_NAME":"PERSEUS-M2","OBJECT_ID":"2014-033AD","EPOCH":"2026-03-06T19:35:16.126368","MEAN_MOTION":14.95147348,"ECCENTRICITY":0.001015,"INCLINATION":97.9879,"RA_OF_ASC_NODE":14.3667,"ARG_OF_PERICENTER":282.4591,"MEAN_ANOMALY":77.5493,"EPHEMERIS_TYPE":0,"CLASSIFICATION_TYPE":"U","NORAD_CAT_ID":40037,"ELEMENT_SET_NO":999,"REV_AT_EPOCH":63548,"BSTAR":0.00032933,"MEAN_MOTION_DOT":3.557e-5,"MEAN_MOTION_DDOT":0},{"OBJECT_NAME":"PERSEUS-M1","OBJECT_ID":"2014-033AF","EPOCH":"2026-03-06T09:28:45.465024","MEAN_MOTION":14.95234871,"ECCENTRICITY":0.00099071,"INCLINATION":97.9559,"RA_OF_ASC_NODE":7.9297,"ARG_OF_PERICENTER":281.0478,"MEAN_ANOMALY":78.9628,"EPHEMERIS_TYPE":0,"CLASSIFICATION_TYPE":"U","NORAD_CAT_ID":40039,"ELEMENT_SET_NO":999,"REV_AT_EPOCH":63527,"BSTAR":0.00032944794,"MEAN_MOTION_DOT":3.567e-5,"MEAN_MOTION_DDOT":0},{"OBJECT_NAME":"POLYITAN-1","OBJECT_ID":"2014-033AJ","EPOCH":"2026-03-06T00:15:12.920544","MEAN_MOTION":15.29356282,"ECCENTRICITY":0.00091063,"INCLINATION":98.1047,"RA_OF_ASC_NODE":81.766,"ARG_OF_PERICENTER":138.2976,"MEAN_ANOMALY":221.8957,"EPHEMERIS_TYPE":0,"CLASSIFICATION_TYPE":"U","NORAD_CAT_ID":40042,"ELEMENT_SET_NO":999,"REV_AT_EPOCH":63780,"BSTAR":0.00078282034,"MEAN_MOTION_DOT":0.00022272,"MEAN_MOTION_DDOT":0}]
